{"cities":[{"divisionStr":"北京--北京","id":"1","isOpen":"1","lat":"39.904172","lng":"116.407417","name":"北京市","pinyin":"beijing"},{"divisionStr":"","id":"10","isOpen":"1","lat":"31.230378","lng":"121.473658","name":"上海市","pinyin":"shanghai"},{"divisionStr":"","id":"20","isOpen":"1","lat":"23.129112","lng":"113.264385","name":"广州市","pinyin":"guangzhou"},{"divisionStr":"","id":"30","isOpen":"1","lat":"22.547","lng":"114.085947","name":"深圳市","pinyin":"shenzhen"},{"divisionStr":"","id":"40","isOpen":"1","lat":"39.085294","lng":"117.201538","name":"天津市","pinyin":"tianjin"},{"divisionStr":"","id":"42","isOpen":"1","lat":"34.343147","lng":"108.939621","name":"西安市","pinyin":"xian"},{"divisionStr":"","id":"44","isOpen":"1","lat":"26.074268","lng":"119.296389","name":"福州市","pinyin":"fuzhou"},{"divisionStr":"","id":"45","isOpen":"1","lat":"29.563761","lng":"106.550464","name":"重庆市","pinyin":"chongqing"},{"divisionStr":"","id":"50","isOpen":"1","lat":"30.245853","lng":"120.209947","name":"杭州市","pinyin":"hangzhou"},{"divisionStr":"","id":"51","isOpen":"1","lat":"29.859515","lng":"121.6216","name":"宁波市","pinyin":"ningbo"},{"divisionStr":"","id":"52","isOpen":"1","lat":"31.574729","lng":"120.301663","name":"无锡市","pinyin":"wuxi"},{"divisionStr":"","id":"55","isOpen":"1","lat":"32.059352","lng":"118.796623","name":"南京市","pinyin":"nanjing"},{"divisionStr":"","id":"56","isOpen":"1","lat":"31.82057","lng":"117.227308","name":"合肥市","pinyin":"hefei"},{"divisionStr":"","id":"57","isOpen":"1","lat":"30.592935","lng":"114.305215","name":"武汉市","pinyin":"wuhan"},{"divisionStr":"","id":"59","isOpen":"1","lat":"30.573095","lng":"104.066143","name":"成都市","pinyin":"chengdu"},{"divisionStr":"","id":"60","isOpen":"1","lat":"36.067131","lng":"120.382621","name":"青岛市","pinyin":"qingdao"},{"divisionStr":"","id":"62","isOpen":"1","lat":"24.490474","lng":"118.110221","name":"厦门市","pinyin":"xiamen"},{"divisionStr":"","id":"65","isOpen":"1","lat":"38.91459","lng":"121.618622","name":"大连市","pinyin":"dalian"},{"divisionStr":"","id":"66","isOpen":"1","lat":"41.677287","lng":"123.465009","name":"沈阳市","pinyin":"shenyang"},{"divisionStr":"","id":"70","isOpen":"1","lat":"28.228272","lng":"112.938888","name":"长沙市","pinyin":"changsha"},{"divisionStr":"","id":"73","isOpen":"1","lat":"34.754125","lng":"113.666051","name":"郑州市","pinyin":"zhengzhou"},{"divisionStr":"","id":"76","isOpen":"1","lat":"38.042225","lng":"114.514793","name":"石家庄市","pinyin":"shijiazhuang"},{"divisionStr":"","id":"80","isOpen":"1","lat":"31.299379","lng":"120.619585","name":"苏州市","pinyin":"suzhou"},{"divisionStr":"","id":"81","isOpen":"1","lat":"36.814939","lng":"118.047649","name":"淄博市","pinyin":"zibo"},{"divisionStr":"","id":"82","isOpen":"1","lat":"32.016212","lng":"120.864608","name":"南通市","pinyin":"nantong"},{"divisionStr":"","id":"83","isOpen":"1","lat":"28.683016","lng":"115.857963","name":"南昌市","pinyin":"nanchang"},{"divisionStr":"","id":"84","isOpen":"0","lat":"38.874062","lng":"115.464804","name":"保定市","pinyin":"baoding"},{"divisionStr":"","id":"88","isOpen":"0","lat":"32.939667","lng":"117.363228","name":"蚌埠市","pinyin":"bengbu"},{"divisionStr":"","id":"89","isOpen":"1","lat":"31.772752","lng":"119.946973","name":"常州市","pinyin":"changzhou"},{"divisionStr":"","id":"90","isOpen":"0","lat":"46.590734","lng":"125.11272","name":"大庆市","pinyin":"daqing"},{"divisionStr":"","id":"91","isOpen":"1","lat":"23.046237","lng":"113.746262","name":"东莞市","pinyin":"dongguan"},{"divisionStr":"","id":"92","isOpen":"1","lat":"23.028762","lng":"113.122717","name":"佛山市","pinyin":"foshan"},{"divisionStr":"","id":"93","isOpen":"1","lat":"25.274215","lng":"110.299121","name":"桂林市","pinyin":"guilin"},{"divisionStr":"","id":"94","isOpen":"1","lat":"20.044412","lng":"110.198286","name":"海口市","pinyin":"haikou"},{"divisionStr":"","id":"95","isOpen":"0","lat":"40.755572","lng":"120.856394","name":"葫芦岛市","pinyin":"huludao"},{"divisionStr":"","id":"96","isOpen":"1","lat":"36.6512","lng":"117.120098","name":"济南市","pinyin":"jinan"},{"divisionStr":"","id":"97","isOpen":"1","lat":"35.23904","lng":"113.238266","name":"焦作市","pinyin":"jiaozuo"},{"divisionStr":"","id":"98","isOpen":"1","lat":"41.119269","lng":"121.135742","name":"锦州市","pinyin":"jinzhou"},{"divisionStr":"","id":"99","isOpen":"1","lat":"22.817746","lng":"108.36637","name":"南宁市","pinyin":"nanning"},{"divisionStr":"","id":"101","isOpen":"1","lat":"37.87046","lng":"112.549717","name":"太原市","pinyin":"taiyuan"},{"divisionStr":"","id":"102","isOpen":"1","lat":"31.326319","lng":"118.376451","name":"芜湖市","pinyin":"wuhu"},{"divisionStr":"","id":"103","isOpen":"0","lat":"35.302616","lng":"113.883991","name":"新乡市","pinyin":"xinxiang"},{"divisionStr":"","id":"104","isOpen":"1","lat":"37.539297","lng":"121.391382","name":"烟台市","pinyin":"yantai"},{"divisionStr":"","id":"105","isOpen":"1","lat":"45.803131","lng":"126.535319","name":"哈尔滨市","pinyin":"haerbin"},{"divisionStr":"","id":"106","isOpen":"1","lat":"39.523927","lng":"116.704441","name":"廊坊市","pinyin":"langfang"},{"divisionStr":"","id":"107","isOpen":"1","lat":"26.652479","lng":"106.570664","name":"贵阳市","pinyin":"guiyang"},{"divisionStr":"","id":"108","isOpen":"1","lat":"22.224979","lng":"113.553986","name":"珠海市","pinyin":"zhuhai"},{"divisionStr":"","id":"109","isOpen":"1","lat":"47.342081","lng":"123.95792","name":"齐齐哈尔市","pinyin":"qiqihaer"},{"divisionStr":"","id":"110","isOpen":"1","lat":"24.87435","lng":"118.675847","name":"泉州市","pinyin":"quanzhou"},{"divisionStr":"","id":"111","isOpen":"1","lat":"18.247872","lng":"109.508268","name":"三亚市","pinyin":"sanya"},{"divisionStr":"","id":"112","isOpen":"1","lat":"28.000575","lng":"120.672111","name":"温州市","pinyin":"wenzhou"},{"divisionStr":"","id":"113","isOpen":"1","lat":"22.521113","lng":"113.382391","name":"中山市","pinyin":"zhongshan"},{"divisionStr":"","id":"114","isOpen":"1","lat":"24.881539","lng":"102.833722","name":"昆明市","pinyin":"kunming"},{"divisionStr":"","id":"115","isOpen":"0","lat":"29.712034","lng":"115.992811","name":"九江市","pinyin":"jiujiang"},{"divisionStr":"","id":"116","isOpen":"1","lat":"43.817001","lng":"125.323628","name":"长春市","pinyin":"changchun"},{"divisionStr":"","id":"117","isOpen":"0","lat":"23.37102","lng":"116.708463","name":"汕头市","pinyin":"shantou"},{"divisionStr":"","id":"118","isOpen":"0","lat":"22.277469","lng":"114.171202","name":"香港特别行政区","pinyin":"xianggang"},{"divisionStr":"","id":"119","isOpen":"1","lat":"34.261792","lng":"117.184811","name":"徐州市","pinyin":"xuzhou"},{"divisionStr":"","id":"120","isOpen":"1","lat":"32.393159","lng":"119.421003","name":"扬州市","pinyin":"yangzhou"},{"divisionStr":"","id":"121","isOpen":"1","lat":"39.635113","lng":"118.175393","name":"唐山市","pinyin":"tangshan"},{"divisionStr":"","id":"122","isOpen":"1","lat":"39.942531","lng":"119.586579","name":"秦皇岛市","pinyin":"qinhuangdao"},{"divisionStr":"","id":"123","isOpen":"1","lat":"36.612273","lng":"114.490686","name":"邯郸市","pinyin":"handan"},{"divisionStr":"","id":"124","isOpen":"0","lat":"37.0682","lng":"114.508851","name":"邢台市","pinyin":"xingtai"},{"divisionStr":"","id":"125","isOpen":"0","lat":"40.811901","lng":"114.884091","name":"张家口市","pinyin":"zhangjiakou"},{"divisionStr":"","id":"126","isOpen":"0","lat":"40.976204","lng":"117.939152","name":"承德市","pinyin":"chengde"},{"divisionStr":"","id":"127","isOpen":"0","lat":"38.310582","lng":"116.857461","name":"沧州市","pinyin":"cangzhou"},{"divisionStr":"","id":"128","isOpen":"0","lat":"37.735097","lng":"115.665993","name":"衡水市","pinyin":"hengshui"},{"divisionStr":"","id":"129","isOpen":"1","lat":"40.09031","lng":"113.295259","name":"大同市","pinyin":"datong"},{"divisionStr":"","id":"130","isOpen":"0","lat":"37.861188","lng":"113.583285","name":"阳泉市","pinyin":"yangquan"},{"divisionStr":"","id":"131","isOpen":"0","lat":"36.191112","lng":"113.113556","name":"长治市","pinyin":"changzhi"},{"divisionStr":"","id":"132","isOpen":"0","lat":"35.497553","lng":"112.851274","name":"晋城市","pinyin":"jincheng"},{"divisionStr":"","id":"133","isOpen":"0","lat":"39.331261","lng":"112.433387","name":"朔州市","pinyin":"shuozhou"},{"divisionStr":"","id":"134","isOpen":"0","lat":"37.696495","lng":"112.736465","name":"晋中市","pinyin":"jinzhong"},{"divisionStr":"","id":"135","isOpen":"1","lat":"35.022778","lng":"111.003957","name":"运城市","pinyin":"yuncheng"},{"divisionStr":"","id":"136","isOpen":"0","lat":"38.41769","lng":"112.733538","name":"忻州市","pinyin":"xinzhou"},{"divisionStr":"","id":"137","isOpen":"1","lat":"36.08415","lng":"111.517973","name":"临汾市","pinyin":"linfen"},{"divisionStr":"","id":"138","isOpen":"0","lat":"37.524366","lng":"111.134335","name":"吕梁市","pinyin":"lvliang"},{"divisionStr":"","id":"139","isOpen":"1","lat":"40.842723","lng":"111.748426","name":"呼和浩特市","pinyin":"huhehaote"},{"divisionStr":"","id":"140","isOpen":"1","lat":"40.658168","lng":"109.840405","name":"包头市","pinyin":"baotou"},{"divisionStr":"","id":"141","isOpen":"0","lat":"39.673734","lng":"106.825563","name":"乌海市","pinyin":"wuhai"},{"divisionStr":"","id":"142","isOpen":"0","lat":"42.275317","lng":"118.956806","name":"赤峰市","pinyin":"chifeng"},{"divisionStr":"","id":"143","isOpen":"0","lat":"43.617429","lng":"122.263119","name":"通辽市","pinyin":"tongliao"},{"divisionStr":"","id":"144","isOpen":"0","lat":"39.817179","lng":"109.99029","name":"鄂尔多斯市","pinyin":"eerduosi"},{"divisionStr":"","id":"145","isOpen":"0","lat":"49.215333","lng":"119.758168","name":"呼伦贝尔市","pinyin":"hulunbeier"},{"divisionStr":"","id":"146","isOpen":"0","lat":"40.757402","lng":"107.416959","name":"巴彦淖尔市","pinyin":"bayannaoer"},{"divisionStr":"","id":"147","isOpen":"0","lat":"41.034126","lng":"113.114543","name":"乌兰察布市","pinyin":"wulanchabu"},{"divisionStr":"","id":"148","isOpen":"0","lat":"46.076268","lng":"122.070317","name":"兴安盟","pinyin":"xinganmeng"},{"divisionStr":"","id":"149","isOpen":"0","lat":"43.933411","lng":"116.086032","name":"锡林郭勒市","pinyin":"xilinguolemeng"},{"divisionStr":"","id":"150","isOpen":"0","lat":"38.844814","lng":"105.706423","name":"阿拉善盟","pinyin":"alashanmeng"},{"divisionStr":"","id":"151","isOpen":"1","lat":"41.110626","lng":"122.995632","name":"鞍山市","pinyin":"anshan"},{"divisionStr":"","id":"152","isOpen":"1","lat":"41.875956","lng":"123.921109","name":"抚顺市","pinyin":"fushun"},{"divisionStr":"","id":"153","isOpen":"0","lat":"41.297909","lng":"123.770519","name":"本溪市","pinyin":"benxi"},{"divisionStr":"","id":"154","isOpen":"0","lat":"40.124296","lng":"124.383044","name":"丹东市","pinyin":"dandong"},{"divisionStr":"","id":"155","isOpen":"1","lat":"40.667432","lng":"122.235152","name":"营口市","pinyin":"yingkou"},{"divisionStr":"","id":"156","isOpen":"0","lat":"42.011796","lng":"121.648962","name":"阜新市","pinyin":"fuxin"},{"divisionStr":"","id":"157","isOpen":"0","lat":"41.269402","lng":"123.18152","name":"辽阳市","pinyin":"liaoyang"},{"divisionStr":"","id":"158","isOpen":"0","lat":"41.124484","lng":"122.069571","name":"盘锦市","pinyin":"panjin"},{"divisionStr":"","id":"159","isOpen":"0","lat":"42.290585","lng":"123.844279","name":"铁岭市","pinyin":"tieling"},{"divisionStr":"","id":"160","isOpen":"0","lat":"41.576758","lng":"120.451176","name":"朝阳市","pinyin":"chaoyang"},{"divisionStr":"","id":"161","isOpen":"1","lat":"43.843577","lng":"126.55302","name":"吉林市","pinyin":"jilin"},{"divisionStr":"","id":"162","isOpen":"0","lat":"43.170344","lng":"124.370785","name":"四平市","pinyin":"siping"},{"divisionStr":"","id":"163","isOpen":"0","lat":"42.902692","lng":"125.145349","name":"辽源市","pinyin":"liaoyuan"},{"divisionStr":"","id":"164","isOpen":"0","lat":"41.721177","lng":"125.936501","name":"通化市","pinyin":"tonghua"},{"divisionStr":"","id":"165","isOpen":"0","lat":"41.942505","lng":"126.427839","name":"白山市","pinyin":"baishan"},{"divisionStr":"","id":"166","isOpen":"0","lat":"45.118243","lng":"124.823608","name":"松原市","pinyin":"songyuan"},{"divisionStr":"","id":"167","isOpen":"0","lat":"45.619026","lng":"122.841114","name":"白城市","pinyin":"baicheng"},{"divisionStr":"","id":"168","isOpen":"0","lat":"42.912091","lng":"129.48838","name":"延边朝鲜族自治州","pinyin":"yanbian"},{"divisionStr":"","id":"169","isOpen":"0","lat":"45.300046","lng":"130.975966","name":"鸡西市","pinyin":"jixi"},{"divisionStr":"","id":"170","isOpen":"0","lat":"47.332085","lng":"130.277487","name":"鹤岗市","pinyin":"hegang"},{"divisionStr":"","id":"171","isOpen":"0","lat":"46.643442","lng":"131.157304","name":"双鸭山市","pinyin":"shuangyashan"},{"divisionStr":"","id":"172","isOpen":"0","lat":"47.724775","lng":"128.899396","name":"伊春市","pinyin":"yichunyc"},{"divisionStr":"","id":"173","isOpen":"0","lat":"46.809606","lng":"130.361634","name":"佳木斯市","pinyin":"jiamusi"},{"divisionStr":"","id":"174","isOpen":"0","lat":"45.771266","lng":"131.015584","name":"七台河市","pinyin":"qitaihe"},{"divisionStr":"","id":"175","isOpen":"0","lat":"44.570551","lng":"129.677482","name":"牡丹江市","pinyin":"mudanjiang"},{"divisionStr":"","id":"176","isOpen":"0","lat":"50.249585","lng":"127.499023","name":"黑河市","pinyin":"heihe"},{"divisionStr":"","id":"177","isOpen":"0","lat":"46.637393","lng":"126.99293","name":"绥化市","pinyin":"suihua"},{"divisionStr":"","id":"178","isOpen":"0","lat":"50.411047","lng":"124.117811","name":"大兴安岭地区","pinyin":"daxinganling"},{"divisionStr":"","id":"179","isOpen":"1","lat":"34.600018","lng":"119.178821","name":"连云港市","pinyin":"lianyungang"},{"divisionStr":"","id":"180","isOpen":"1","lat":"33.597506","lng":"119.021265","name":"淮安市","pinyin":"huaian"},{"divisionStr":"","id":"181","isOpen":"1","lat":"33.377631","lng":"120.139998","name":"盐城市","pinyin":"yancheng"},{"divisionStr":"","id":"182","isOpen":"1","lat":"32.204402","lng":"119.452753","name":"镇江市","pinyin":"zhenjiang"},{"divisionStr":"","id":"183","isOpen":"1","lat":"32.484882","lng":"119.915176","name":"泰州市","pinyin":"taizhou"},{"divisionStr":"","id":"184","isOpen":"0","lat":"33.963008","lng":"118.275162","name":"宿迁市","pinyin":"suqian"},{"divisionStr":"","id":"185","isOpen":"1","lat":"30.762653","lng":"120.750865","name":"嘉兴市","pinyin":"jiaxing"},{"divisionStr":"","id":"186","isOpen":"1","lat":"30.867198","lng":"120.102398","name":"湖州市","pinyin":"huzhou"},{"divisionStr":"","id":"187","isOpen":"1","lat":"29.997117","lng":"120.582112","name":"绍兴市","pinyin":"shaoxing"},{"divisionStr":"","id":"188","isOpen":"1","lat":"29.089524","lng":"119.649506","name":"金华市","pinyin":"jinhua"},{"divisionStr":"","id":"189","isOpen":"1","lat":"28.941708","lng":"118.87263","name":"衢州市","pinyin":"quzhou"},{"divisionStr":"","id":"190","isOpen":"1","lat":"30.016028","lng":"122.106863","name":"舟山市","pinyin":"zhoushan"},{"divisionStr":"","id":"191","isOpen":"1","lat":"28.661378","lng":"121.428599","name":"台州市","pinyin":"taizhoutz"},{"divisionStr":"","id":"192","isOpen":"0","lat":"28.451993","lng":"119.921786","name":"丽水市","pinyin":"lishui"},{"divisionStr":"","id":"193","isOpen":"0","lat":"32.647574","lng":"117.018329","name":"淮南市","pinyin":"huainan"},{"divisionStr":"","id":"194","isOpen":"1","lat":"31.669611","lng":"118.506502","name":"马鞍山市","pinyin":"maanshan"},{"divisionStr":"","id":"195","isOpen":"0","lat":"33.971707","lng":"116.794664","name":"淮北市","pinyin":"huaibei"},{"divisionStr":"","id":"196","isOpen":"0","lat":"30.929935","lng":"117.816576","name":"铜陵市","pinyin":"tongling"},{"divisionStr":"","id":"197","isOpen":"0","lat":"30.50883","lng":"117.043551","name":"安庆市","pinyin":"anqing"},{"divisionStr":"","id":"198","isOpen":"0","lat":"29.709239","lng":"118.317325","name":"黄山市","pinyin":"huangshan"},{"divisionStr":"","id":"199","isOpen":"0","lat":"32.303627","lng":"118.316264","name":"滁州市","pinyin":"chuzhou"},{"divisionStr":"","id":"200","isOpen":"0","lat":"32.896969","lng":"115.819729","name":"阜阳市","pinyin":"fuyang"},{"divisionStr":"","id":"201","isOpen":"0","lat":"33.633891","lng":"116.984084","name":"宿州市","pinyin":"suzhousz"},{"divisionStr":"","id":"202","isOpen":"1","lat":"31.598628","lng":"117.8618","name":"巢湖市","pinyin":"chaohu"},{"divisionStr":"","id":"203","isOpen":"0","lat":"31.752889","lng":"116.507676","name":"六安市","pinyin":"liuan"},{"divisionStr":"","id":"204","isOpen":"0","lat":"33.869338","lng":"115.782939","name":"亳州市","pinyin":"bozhou"},{"divisionStr":"","id":"205","isOpen":"0","lat":"30.656037","lng":"117.489157","name":"池州市","pinyin":"chizhou"},{"divisionStr":"","id":"206","isOpen":"0","lat":"30.945667","lng":"118.757995","name":"宣城市","pinyin":"xuancheng"},{"divisionStr":"","id":"207","isOpen":"1","lat":"25.431011","lng":"119.007558","name":"莆田市","pinyin":"putian"},{"divisionStr":"","id":"208","isOpen":"0","lat":"26.265444","lng":"117.635001","name":"三明市","pinyin":"sanming"},{"divisionStr":"","id":"209","isOpen":"1","lat":"24.510897","lng":"117.661801","name":"漳州市","pinyin":"zhangzhou"},{"divisionStr":"","id":"210","isOpen":"0","lat":"26.635627","lng":"118.178459","name":"南平市","pinyin":"nanping"},{"divisionStr":"","id":"211","isOpen":"0","lat":"25.075097","lng":"117.01728","name":"龙岩市","pinyin":"longyan"},{"divisionStr":"","id":"212","isOpen":"0","lat":"26.659241","lng":"119.527082","name":"宁德市","pinyin":"ningde"},{"divisionStr":"","id":"213","isOpen":"0","lat":"29.29256","lng":"117.214664","name":"景德镇市","pinyin":"jingdezhen"},{"divisionStr":"","id":"214","isOpen":"0","lat":"27.622946","lng":"113.852186","name":"萍乡市","pinyin":"pingxiang"},{"divisionStr":"","id":"215","isOpen":"0","lat":"27.810835","lng":"114.930835","name":"新余市","pinyin":"xinyu"},{"divisionStr":"","id":"216","isOpen":"0","lat":"28.238638","lng":"117.033838","name":"鹰潭市","pinyin":"yingtan"},{"divisionStr":"","id":"217","isOpen":"0","lat":"25.85097","lng":"114.940278","name":"赣州市","pinyin":"ganzhou"},{"divisionStr":"","id":"218","isOpen":"0","lat":"27.111699","lng":"114.986373","name":"吉安市","pinyin":"jian"},{"divisionStr":"","id":"219","isOpen":"0","lat":"27.8043","lng":"114.391137","name":"宜春市","pinyin":"yichun"},{"divisionStr":"","id":"220","isOpen":"0","lat":"27.98385","lng":"116.358351","name":"抚州市","pinyin":"fuzhoufz"},{"divisionStr":"","id":"221","isOpen":"0","lat":"28.44442","lng":"117.971185","name":"上饶市","pinyin":"shangrao"},{"divisionStr":"","id":"222","isOpen":"1","lat":"34.856424","lng":"117.557964","name":"枣庄市","pinyin":"zaozhuang"},{"divisionStr":"","id":"223","isOpen":"1","lat":"37.434564","lng":"118.66471","name":"东营市","pinyin":"dongying"},{"divisionStr":"","id":"224","isOpen":"1","lat":"36.70925","lng":"119.107078","name":"潍坊市","pinyin":"weifang"},{"divisionStr":"","id":"225","isOpen":"1","lat":"35.415393","lng":"116.587245","name":"济宁市","pinyin":"jining"},{"divisionStr":"","id":"226","isOpen":"1","lat":"36.194968","lng":"117.129063","name":"泰安市","pinyin":"taian"},{"divisionStr":"","id":"227","isOpen":"1","lat":"37.509691","lng":"122.116394","name":"威海市","pinyin":"weihai"},{"divisionStr":"","id":"228","isOpen":"0","lat":"35.428588","lng":"119.461208","name":"日照市","pinyin":"rizhao"},{"divisionStr":"","id":"229","isOpen":"0","lat":"36.214397","lng":"117.677736","name":"莱芜市","pinyin":"laiwu"},{"divisionStr":"","id":"230","isOpen":"1","lat":"35.065282","lng":"118.326443","name":"临沂市","pinyin":"linyi"},{"divisionStr":"","id":"231","isOpen":"0","lat":"37.453968","lng":"116.307428","name":"德州市","pinyin":"dezhou"},{"divisionStr":"","id":"232","isOpen":"1","lat":"36.456013","lng":"115.980367","name":"聊城市","pinyin":"liaocheng"},{"divisionStr":"","id":"233","isOpen":"0","lat":"37.383542","lng":"118.016974","name":"滨州市","pinyin":"binzhou"},{"divisionStr":"","id":"234","isOpen":"0","lat":"35.246531","lng":"115.469381","name":"菏泽市","pinyin":"heze"},{"divisionStr":"","id":"235","isOpen":"0","lat":"34.797049","lng":"114.341447","name":"开封市","pinyin":"kaifeng"},{"divisionStr":"","id":"236","isOpen":"1","lat":"34.663041","lng":"112.434468","name":"洛阳市","pinyin":"luoyang"},{"divisionStr":"","id":"237","isOpen":"0","lat":"33.735241","lng":"113.307718","name":"平顶山市","pinyin":"pingdingshan"},{"divisionStr":"","id":"238","isOpen":"0","lat":"36.103442","lng":"114.352482","name":"安阳市","pinyin":"anyang"},{"divisionStr":"","id":"239","isOpen":"0","lat":"35.748236","lng":"114.295444","name":"鹤壁市","pinyin":"hebi"},{"divisionStr":"","id":"240","isOpen":"0","lat":"35.768234","lng":"115.041299","name":"濮阳市","pinyin":"puyang"},{"divisionStr":"","id":"241","isOpen":"0","lat":"34.022956","lng":"113.826063","name":"许昌市","pinyin":"xuchang"},{"divisionStr":"","id":"242","isOpen":"0","lat":"33.575855","lng":"114.026405","name":"漯河市","pinyin":"luohe"},{"divisionStr":"","id":"243","isOpen":"0","lat":"34.777338","lng":"111.194099","name":"三门峡市","pinyin":"sanmenxia"},{"divisionStr":"","id":"244","isOpen":"1","lat":"32.999082","lng":"112.540918","name":"南阳市","pinyin":"nanyang"},{"divisionStr":"","id":"245","isOpen":"0","lat":"34.437054","lng":"115.650497","name":"商丘市","pinyin":"shangqiu"},{"divisionStr":"","id":"246","isOpen":"0","lat":"32.123274","lng":"114.075031","name":"信阳市","pinyin":"xinyang"},{"divisionStr":"","id":"247","isOpen":"0","lat":"33.620357","lng":"114.649653","name":"周口市","pinyin":"zhoukou"},{"divisionStr":"","id":"248","isOpen":"0","lat":"32.980169","lng":"114.024736","name":"驻马店市","pinyin":"zhumadian"},{"divisionStr":"","id":"249","isOpen":"0","lat":"35.067243","lng":"112.601919","name":"济源市","pinyin":"jiyuan"},{"divisionStr":"","id":"250","isOpen":"1","lat":"30.220074","lng":"115.077048","name":"黄石市","pinyin":"huangshi"},{"divisionStr":"","id":"251","isOpen":"0","lat":"32.629034","lng":"110.798657","name":"十堰市","pinyin":"shiyan"},{"divisionStr":"","id":"252","isOpen":"1","lat":"30.69187","lng":"111.286451","name":"宜昌市","pinyin":"yichang"},{"divisionStr":"","id":"253","isOpen":"1","lat":"32.042426","lng":"112.144146","name":"襄阳市","pinyin":"xiangyang"},{"divisionStr":"","id":"254","isOpen":"0","lat":"30.396536","lng":"114.890593","name":"鄂州市","pinyin":"ezhou"},{"divisionStr":"","id":"255","isOpen":"0","lat":"31.03542","lng":"112.204251","name":"荆门市","pinyin":"jingmen"},{"divisionStr":"","id":"256","isOpen":"0","lat":"30.926423","lng":"113.926656","name":"孝感市","pinyin":"xiaogan"},{"divisionStr":"","id":"257","isOpen":"1","lat":"30.326857","lng":"112.23813","name":"荆州市","pinyin":"jingzhou"},{"divisionStr":"","id":"258","isOpen":"0","lat":"30.447711","lng":"114.879365","name":"黄冈市","pinyin":"huanggang"},{"divisionStr":"","id":"259","isOpen":"0","lat":"29.832798","lng":"114.328963","name":"咸宁市","pinyin":"xianning"},{"divisionStr":"","id":"260","isOpen":"0","lat":"31.690187","lng":"113.382477","name":"随州市","pinyin":"suizhou"},{"divisionStr":"","id":"261","isOpen":"0","lat":"30.29468","lng":"109.479665","name":"恩施土家族苗族自治州","pinyin":"enshi"},{"divisionStr":"","id":"263","isOpen":"1","lat":"27.835806","lng":"113.151737","name":"株洲市","pinyin":"zhuzhou"},{"divisionStr":"","id":"264","isOpen":"0","lat":"27.82973","lng":"112.944052","name":"湘潭市","pinyin":"xiangtan"},{"divisionStr":"","id":"265","isOpen":"1","lat":"26.900358","lng":"112.607693","name":"衡阳市","pinyin":"hengyang"},{"divisionStr":"","id":"266","isOpen":"0","lat":"27.237842","lng":"111.46923","name":"邵阳市","pinyin":"shaoyang"},{"divisionStr":"","id":"267","isOpen":"1","lat":"29.37029","lng":"113.132855","name":"岳阳市","pinyin":"yueyang"},{"divisionStr":"","id":"268","isOpen":"1","lat":"29.040225","lng":"111.691347","name":"常德市","pinyin":"changde"},{"divisionStr":"","id":"269","isOpen":"0","lat":"29.127401","lng":"110.479921","name":"张家界市","pinyin":"zhangjiajie"},{"divisionStr":"","id":"270","isOpen":"0","lat":"28.570066","lng":"112.355042","name":"益阳市","pinyin":"yiyang"},{"divisionStr":"","id":"271","isOpen":"0","lat":"25.77051","lng":"113.014718","name":"郴州市","pinyin":"chenzhou"},{"divisionStr":"","id":"272","isOpen":"0","lat":"26.434516","lng":"111.608019","name":"永州市","pinyin":"yongzhou"},{"divisionStr":"","id":"273","isOpen":"0","lat":"27.550082","lng":"109.97824","name":"怀化市","pinyin":"huaihua"},{"divisionStr":"","id":"274","isOpen":"0","lat":"27.728136","lng":"112.008497","name":"娄底市","pinyin":"loudi"},{"divisionStr":"","id":"275","isOpen":"0","lat":"28.311994","lng":"109.738783","name":"湘西土家族苗族自治州","pinyin":"xiangxi"},{"divisionStr":"","id":"276","isOpen":"1","lat":"24.811094","lng":"113.597313","name":"韶关市","pinyin":"shaoguan"},{"divisionStr":"","id":"277","isOpen":"1","lat":"22.590431","lng":"113.094942","name":"江门市","pinyin":"jiangmen"},{"divisionStr":"","id":"278","isOpen":"0","lat":"21.274898","lng":"110.364977","name":"湛江市","pinyin":"zhanjiang"},{"divisionStr":"","id":"279","isOpen":"0","lat":"21.659751","lng":"110.919229","name":"茂名市","pinyin":"maoming"},{"divisionStr":"","id":"280","isOpen":"0","lat":"23.051546","lng":"112.472529","name":"肇庆市","pinyin":"zhaoqing"},{"divisionStr":"","id":"281","isOpen":"1","lat":"23.079404","lng":"114.412599","name":"惠州市","pinyin":"huizhou"},{"divisionStr":"","id":"282","isOpen":"0","lat":"24.299112","lng":"116.117582","name":"梅州市","pinyin":"meizhou"},{"divisionStr":"","id":"283","isOpen":"0","lat":"22.774485","lng":"115.364238","name":"汕尾市","pinyin":"shanwei"},{"divisionStr":"","id":"284","isOpen":"0","lat":"23.746266","lng":"114.697802","name":"河源市","pinyin":"heyuan"},{"divisionStr":"","id":"285","isOpen":"0","lat":"21.859222","lng":"111.975107","name":"阳江市","pinyin":"yangjiang"},{"divisionStr":"","id":"286","isOpen":"1","lat":"23.685022","lng":"113.051227","name":"清远市","pinyin":"qingyuan"},{"divisionStr":"","id":"287","isOpen":"0","lat":"23.661701","lng":"116.632301","name":"潮州市","pinyin":"chaozhou"},{"divisionStr":"","id":"288","isOpen":"0","lat":"23.543778","lng":"116.355733","name":"揭阳市","pinyin":"jieyang"},{"divisionStr":"","id":"289","isOpen":"0","lat":"22.929801","lng":"112.044439","name":"云浮市","pinyin":"yunfu"},{"divisionStr":"","id":"290","isOpen":"1","lat":"24.314617","lng":"109.411703","name":"柳州市","pinyin":"liuzhou"},{"divisionStr":"","id":"291","isOpen":"0","lat":"23.474803","lng":"111.297604","name":"梧州市","pinyin":"wuzhou"},{"divisionStr":"","id":"292","isOpen":"0","lat":"21.473343","lng":"109.119254","name":"北海市","pinyin":"beihai"},{"divisionStr":"","id":"293","isOpen":"0","lat":"21.614631","lng":"108.345478","name":"防城港市","pinyin":"fangchenggang"},{"divisionStr":"","id":"294","isOpen":"0","lat":"21.967127","lng":"108.624175","name":"钦州市","pinyin":"qinzhou"},{"divisionStr":"","id":"295","isOpen":"0","lat":"23.0936","lng":"109.602146","name":"贵港市","pinyin":"guigang"},{"divisionStr":"","id":"296","isOpen":"0","lat":"22.63136","lng":"110.154393","name":"玉林市","pinyin":"yulin"},{"divisionStr":"","id":"297","isOpen":"0","lat":"23.897742","lng":"106.616285","name":"百色市","pinyin":"baise"},{"divisionStr":"","id":"298","isOpen":"0","lat":"24.414141","lng":"111.552057","name":"贺州市","pinyin":"hezhou"},{"divisionStr":"","id":"299","isOpen":"0","lat":"24.695899","lng":"108.062106","name":"河池市","pinyin":"hechi"},{"divisionStr":"","id":"300","isOpen":"0","lat":"23.733766","lng":"109.229772","name":"来宾市","pinyin":"laibin"},{"divisionStr":"","id":"301","isOpen":"0","lat":"22.404108","lng":"107.353926","name":"崇左市","pinyin":"chongzuo"},{"divisionStr":"","id":"302","isOpen":"0","lat":"29.352765","lng":"104.773447","name":"自贡市","pinyin":"zigong"},{"divisionStr":"","id":"303","isOpen":"0","lat":"26.580446","lng":"101.716008","name":"攀枝花市","pinyin":"panzhihua"},{"divisionStr":"","id":"304","isOpen":"0","lat":"28.889138","lng":"105.443349","name":"泸州市","pinyin":"luzhou"},{"divisionStr":"","id":"305","isOpen":"0","lat":"31.127991","lng":"104.398651","name":"德阳市","pinyin":"deyang"},{"divisionStr":"","id":"306","isOpen":"0","lat":"31.46402","lng":"104.741722","name":"绵阳市","pinyin":"mianyang"},{"divisionStr":"","id":"307","isOpen":"0","lat":"32.433668","lng":"105.829757","name":"广元市","pinyin":"guangyuan"},{"divisionStr":"","id":"308","isOpen":"0","lat":"30.513311","lng":"105.571331","name":"遂宁市","pinyin":"suining"},{"divisionStr":"","id":"309","isOpen":"0","lat":"29.580148","lng":"105.057987","name":"内江市","pinyin":"neijiang"},{"divisionStr":"","id":"310","isOpen":"1","lat":"29.582024","lng":"103.761263","name":"乐山市","pinyin":"leshan"},{"divisionStr":"","id":"311","isOpen":"0","lat":"30.795282","lng":"106.082974","name":"南充市","pinyin":"nanchong"},{"divisionStr":"","id":"312","isOpen":"0","lat":"30.048318","lng":"103.831788","name":"眉山市","pinyin":"meishan"},{"divisionStr":"","id":"313","isOpen":"0","lat":"28.760189","lng":"104.630825","name":"宜宾市","pinyin":"yibin"},{"divisionStr":"","id":"314","isOpen":"0","lat":"30.456398","lng":"106.633369","name":"广安市","pinyin":"guangan"},{"divisionStr":"","id":"315","isOpen":"0","lat":"31.209572","lng":"107.468023","name":"达州市","pinyin":"dazhou"},{"divisionStr":"","id":"316","isOpen":"0","lat":"29.987722","lng":"103.001033","name":"雅安市","pinyin":"yaan"},{"divisionStr":"","id":"317","isOpen":"0","lat":"31.858809","lng":"106.753669","name":"巴中市","pinyin":"bazhong"},{"divisionStr":"","id":"318","isOpen":"0","lat":"30.122211","lng":"104.641917","name":"资阳市","pinyin":"ziyang"},{"divisionStr":"","id":"319","isOpen":"0","lat":"31.899792","lng":"102.221375","name":"阿坝藏族羌族自治州","pinyin":"aba"},{"divisionStr":"","id":"320","isOpen":"0","lat":"30.050663","lng":"101.963815","name":"甘孜藏族自治州","pinyin":"ganzi"},{"divisionStr":"","id":"321","isOpen":"0","lat":"27.886762","lng":"102.258746","name":"凉山彝族自治州","pinyin":"liangshan"},{"divisionStr":"","id":"322","isOpen":"0","lat":"26.584643","lng":"104.846743","name":"六盘水市","pinyin":"liupanshui"},{"divisionStr":"","id":"323","isOpen":"1","lat":"27.706626","lng":"106.937265","name":"遵义市","pinyin":"zunyi"},{"divisionStr":"","id":"324","isOpen":"0","lat":"26.245544","lng":"105.932188","name":"安顺市","pinyin":"anshun"},{"divisionStr":"","id":"325","isOpen":"0","lat":"27.718346","lng":"109.191555","name":"铜仁市","pinyin":"tongrendiqu"},{"divisionStr":"","id":"326","isOpen":"0","lat":"25.431043","lng":"105.186077","name":"黔西南布依族苗族自治州","pinyin":"qianxinan"},{"divisionStr":"","id":"327","isOpen":"0","lat":"27.301693","lng":"105.28501","name":"毕节市","pinyin":"bijiediqu"},{"divisionStr":"","id":"328","isOpen":"0","lat":"26.583076","lng":"107.976125","name":"黔东南苗族侗族自治州","pinyin":"qiandongnan"},{"divisionStr":"","id":"329","isOpen":"0","lat":"26.258219","lng":"107.517156","name":"黔南布依族苗族自治州","pinyin":"qiannan"},{"divisionStr":"","id":"330","isOpen":"0","lat":"25.501557","lng":"103.797851","name":"曲靖市","pinyin":"qujing"},{"divisionStr":"","id":"331","isOpen":"0","lat":"24.350461","lng":"102.543907","name":"玉溪市","pinyin":"yuxi"},{"divisionStr":"","id":"332","isOpen":"0","lat":"25.111802","lng":"99.16713300000001","name":"保山市","pinyin":"baoshan"},{"divisionStr":"","id":"333","isOpen":"0","lat":"27.336999","lng":"103.717216","name":"昭通市","pinyin":"zhaotong"},{"divisionStr":"","id":"334","isOpen":"0","lat":"26.872108","lng":"100.233026","name":"丽江市","pinyin":"lijiang"},{"divisionStr":"","id":"335","isOpen":"0","lat":"22.777321","lng":"100.972344","name":"普洱市","pinyin":"puer"},{"divisionStr":"","id":"336","isOpen":"0","lat":"23.886567","lng":"100.08697","name":"临沧市","pinyin":"lincang"},{"divisionStr":"","id":"337","isOpen":"0","lat":"25.041988","lng":"101.546046","name":"楚雄彝族自治州","pinyin":"chuxiong"},{"divisionStr":"","id":"338","isOpen":"0","lat":"23.070891","lng":"103.233","name":"红河哈尼族彝族自治州","pinyin":"honghe"},{"divisionStr":"","id":"339","isOpen":"0","lat":"23.36951","lng":"104.24401","name":"文山壮族苗族自治州","pinyin":"wenshan"},{"divisionStr":"","id":"340","isOpen":"0","lat":"22.001724","lng":"100.797941","name":"西双版纳傣族自治州","pinyin":"xishuangbanna"},{"divisionStr":"","id":"341","isOpen":"1","lat":"25.589449","lng":"100.225668","name":"大理白族自治州","pinyin":"dali"},{"divisionStr":"","id":"342","isOpen":"0","lat":"24.436694","lng":"98.578363","name":"德宏傣族景颇族自治州","pinyin":"dehong"},{"divisionStr":"","id":"343","isOpen":"0","lat":"25.850949","lng":"98.854304","name":"怒江傈僳族自治州","pinyin":"nujiang"},{"divisionStr":"","id":"344","isOpen":"0","lat":"27.826853","lng":"99.706463","name":"迪庆藏族自治州","pinyin":"diqing"},{"divisionStr":"","id":"345","isOpen":"0","lat":"29.653482","lng":"91.171961","name":"拉萨市","pinyin":"lasa"},{"divisionStr":"","id":"346","isOpen":"0","lat":"31.136875","lng":"97.17845199999999","name":"昌都市","pinyin":"changdu"},{"divisionStr":"","id":"347","isOpen":"0","lat":"29.237137","lng":"91.773134","name":"山南市","pinyin":"shannan"},{"divisionStr":"","id":"348","isOpen":"0","lat":"29.267519","lng":"88.885148","name":"日喀则市","pinyin":"rikaze"},{"divisionStr":"","id":"349","isOpen":"0","lat":"31.478148","lng":"92.05174599999999","name":"那曲市","pinyin":"naqu"},{"divisionStr":"","id":"350","isOpen":"0","lat":"32.503187","lng":"80.105498","name":"阿里地区","pinyin":"ali"},{"divisionStr":"","id":"351","isOpen":"0","lat":"29.657277","lng":"94.358677","name":"林芝市","pinyin":"linzhi"},{"divisionStr":"","id":"352","isOpen":"0","lat":"34.916582","lng":"108.979608","name":"铜川市","pinyin":"tongchuan"},{"divisionStr":"","id":"353","isOpen":"0","lat":"34.369315","lng":"107.14487","name":"宝鸡市","pinyin":"baoji"},{"divisionStr":"","id":"354","isOpen":"0","lat":"34.333439","lng":"108.705117","name":"咸阳市","pinyin":"xianyang"},{"divisionStr":"","id":"355","isOpen":"0","lat":"34.499381","lng":"109.502882","name":"渭南市","pinyin":"weinan"},{"divisionStr":"","id":"356","isOpen":"0","lat":"36.596537","lng":"109.49081","name":"延安市","pinyin":"yanan"},{"divisionStr":"","id":"357","isOpen":"0","lat":"33.077668","lng":"107.028621","name":"汉中市","pinyin":"hanzhong"},{"divisionStr":"","id":"358","isOpen":"0","lat":"38.290162","lng":"109.741193","name":"榆林市","pinyin":"yulinyl"},{"divisionStr":"","id":"359","isOpen":"0","lat":"32.6903","lng":"109.029273","name":"安康市","pinyin":"ankang"},{"divisionStr":"","id":"360","isOpen":"0","lat":"33.872706","lng":"109.918561","name":"商洛市","pinyin":"shangluo"},{"divisionStr":"","id":"361","isOpen":"1","lat":"36.06081","lng":"103.834249","name":"兰州市","pinyin":"lanzhou"},{"divisionStr":"","id":"362","isOpen":"0","lat":"38.514238","lng":"102.187888","name":"金昌市","pinyin":"jinchang"},{"divisionStr":"","id":"363","isOpen":"0","lat":"36.54568","lng":"104.173606","name":"白银市","pinyin":"baiyin"},{"divisionStr":"","id":"364","isOpen":"0","lat":"34.578529","lng":"105.724998","name":"天水市","pinyin":"tianshui"},{"divisionStr":"","id":"365","isOpen":"0","lat":"37.929996","lng":"102.634697","name":"武威市","pinyin":"wuwei"},{"divisionStr":"","id":"366","isOpen":"0","lat":"38.932897","lng":"100.455472","name":"张掖市","pinyin":"zhangye"},{"divisionStr":"","id":"367","isOpen":"0","lat":"35.54279","lng":"106.684691","name":"平凉市","pinyin":"pingliang"},{"divisionStr":"","id":"368","isOpen":"0","lat":"39.732819","lng":"98.49435200000001","name":"酒泉市","pinyin":"jiuquan"},{"divisionStr":"","id":"369","isOpen":"0","lat":"35.734218","lng":"107.638372","name":"庆阳市","pinyin":"qingyang"},{"divisionStr":"","id":"370","isOpen":"0","lat":"35.579578","lng":"104.626294","name":"定西市","pinyin":"dingxi"},{"divisionStr":"","id":"371","isOpen":"0","lat":"33.388598","lng":"104.929379","name":"陇南市","pinyin":"longnan"},{"divisionStr":"","id":"372","isOpen":"0","lat":"35.599446","lng":"103.212006","name":"临夏回族自治州","pinyin":"linxia"},{"divisionStr":"","id":"373","isOpen":"0","lat":"34.986354","lng":"102.911008","name":"甘南藏族自治州","pinyin":"gannan"},{"divisionStr":"","id":"374","isOpen":"1","lat":"36.617042","lng":"101.778112","name":"西宁市","pinyin":"xining"},{"divisionStr":"","id":"375","isOpen":"0","lat":"36.50204","lng":"102.104287","name":"海东市","pinyin":"haidong"},{"divisionStr":"","id":"376","isOpen":"0","lat":"36.959435","lng":"100.90106","name":"海北藏族自治州","pinyin":"haibei"},{"divisionStr":"","id":"377","isOpen":"0","lat":"35.516546","lng":"102.018213","name":"黄南藏族自治州","pinyin":"huangnan"},{"divisionStr":"","id":"378","isOpen":"0","lat":"36.280353","lng":"100.619542","name":"海南藏族自治州","pinyin":"hainanzhou"},{"divisionStr":"","id":"379","isOpen":"0","lat":"34.474294","lng":"100.243854","name":"果洛藏族自治州","pinyin":"guoluo"},{"divisionStr":"","id":"380","isOpen":"0","lat":"32.993107","lng":"97.008785","name":"玉树藏族自治州","pinyin":"yushu"},{"divisionStr":"","id":"381","isOpen":"0","lat":"37.374663","lng":"97.370785","name":"海西蒙古族藏族自治州","pinyin":"haixi"},{"divisionStr":"","id":"382","isOpen":"1","lat":"38.487193","lng":"106.230909","name":"银川市","pinyin":"yinchuan"},{"divisionStr":"","id":"383","isOpen":"0","lat":"39.01333","lng":"106.376173","name":"石嘴山市","pinyin":"shizuishan"},{"divisionStr":"","id":"384","isOpen":"0","lat":"37.986165","lng":"106.199409","name":"吴忠市","pinyin":"wuzhong"},{"divisionStr":"","id":"385","isOpen":"0","lat":"36.004561","lng":"106.285241","name":"固原市","pinyin":"guyuan"},{"divisionStr":"","id":"386","isOpen":"0","lat":"37.514951","lng":"105.189568","name":"中卫市","pinyin":"zhongwei"},{"divisionStr":"","id":"387","isOpen":"0","lat":"43.82539","lng":"87.61684200000001","name":"乌鲁木齐市","pinyin":"wulumuqi"},{"divisionStr":"","id":"388","isOpen":"0","lat":"45.595886","lng":"84.873946","name":"克拉玛依市","pinyin":"kelamayi"},{"divisionStr":"","id":"389","isOpen":"0","lat":"42.951227","lng":"89.189537","name":"吐鲁番市","pinyin":"tulufan"},{"divisionStr":"","id":"390","isOpen":"0","lat":"42.833248","lng":"93.51316","name":"哈密市","pinyin":"hami"},{"divisionStr":"","id":"391","isOpen":"0","lat":"44.014577","lng":"87.304012","name":"昌吉回族自治州","pinyin":"changji"},{"divisionStr":"","id":"392","isOpen":"0","lat":"44.903258","lng":"82.07477799999999","name":"博尔塔拉蒙古自治州","pinyin":"boertala"},{"divisionStr":"","id":"393","isOpen":"0","lat":"31.851478","lng":"106.768878","name":"巴州区","pinyin":"bazhou"},{"divisionStr":"","id":"394","isOpen":"0","lat":"41.165867","lng":"80.255639","name":"阿克苏地区","pinyin":"akesu"},{"divisionStr":"","id":"395","isOpen":"0","lat":"39.713966","lng":"76.176796","name":"克孜勒苏柯尔克孜自治州","pinyin":"kezhou"},{"divisionStr":"","id":"396","isOpen":"0","lat":"39.467664","lng":"75.989138","name":"喀什地区","pinyin":"kashi"},{"divisionStr":"","id":"397","isOpen":"0","lat":"37.112149","lng":"79.913534","name":"和田地区","pinyin":"hetian"},{"divisionStr":"","id":"398","isOpen":"0","lat":"43.92186","lng":"81.31794600000001","name":"伊犁哈萨克自治州","pinyin":"yili"},{"divisionStr":"","id":"399","isOpen":"0","lat":"46.746301","lng":"82.985732","name":"塔城地区","pinyin":"tacheng"},{"divisionStr":"","id":"400","isOpen":"0","lat":"47.848393","lng":"88.13963","name":"阿勒泰地区","pinyin":"aletai"},{"divisionStr":"","id":"401","isOpen":"0","lat":"25.048074","lng":"121.517057","name":"台北市","pinyin":"taibei"},{"divisionStr":"","id":"402","isOpen":"0","lat":"22.186883","lng":"113.543117","name":"澳门特别行政区","pinyin":"aomen"},{"divisionStr":"江苏--苏州--昆山","id":"403","isOpen":"1","lat":"31.385598","lng":"120.980737","name":"昆山市","pinyin":"kunshan"},{"divisionStr":"","id":"404","isOpen":"1","lat":"31.920658","lng":"120.284939","name":"江阴市","pinyin":"jiangyin"},{"divisionStr":"浙江--金华--义乌","id":"405","isOpen":"1","lat":"29.306841","lng":"120.075058","name":"义乌市","pinyin":"yiwu"},{"divisionStr":"","id":"408","isOpen":"0","lat":"44.305886","lng":"86.04107500000001","name":"石河子市","pinyin":"shihezi"},{"divisionStr":"","id":"409","isOpen":"0","lat":"39.786529","lng":"98.277304","name":"嘉峪关市","pinyin":"jiayuguan"},{"divisionStr":"","id":"410","isOpen":"0","lat":"23.404165","lng":"113.220218","name":"花都区","pinyin":"huadu"},{"divisionStr":"","id":"411","isOpen":"0","lat":"22.937244","lng":"113.384129","name":"番禺区","pinyin":"panyu"},{"divisionStr":"","id":"412","isOpen":"0","lat":"30.364953","lng":"113.453974","name":"仙桃市","pinyin":"xiantao"},{"divisionStr":"","id":"416","isOpen":"0","lat":"30.048692","lng":"119.960076","name":"富阳区","pinyin":"fuyangfy"},{"divisionStr":"","id":"417","isOpen":"0","lat":"29.542613","lng":"103.352071","name":"峨眉山","pinyin":"emeishan"},{"divisionStr":"","id":"418","isOpen":"0","lat":"19.246013","lng":"110.467147","name":"琼海市","pinyin":"qionghai"},{"divisionStr":"","id":"419","isOpen":"0","lat":"31.178045","lng":"120.66464","name":"张家港","pinyin":"zhangjiagang"},{"divisionStr":"","id":"420","isOpen":"0","lat":"24.781681","lng":"118.552365","name":"晋江市","pinyin":"jinjiang"},{"divisionStr":"","id":"421","isOpen":"0","lat":"23.548852","lng":"113.586605","name":"从化","pinyin":"conghua"},{"divisionStr":"","id":"422","isOpen":"0","lat":"31.654376","lng":"120.752481","name":"常熟市","pinyin":"changshu"},{"divisionStr":"","id":"423","isOpen":"0","lat":"42.891255","lng":"129.508946","name":"延吉市","pinyin":"yanji"},{"divisionStr":"","id":"424","isOpen":"0","lat":"30.510659","lng":"120.680757","name":"海宁市","pinyin":"haining"},{"divisionStr":"","id":"425","isOpen":"0","lat":"30.630173","lng":"120.565099","name":"桐乡市","pinyin":"tongxiang"},{"divisionStr":"","id":"426","isOpen":"0","lat":"39.485283","lng":"115.974422","name":"涿州市","pinyin":"zhuozhou"},{"divisionStr":"","id":"427","isOpen":"0","lat":"29.703022","lng":"107.38977","name":"涪陵市","pinyin":"fuling"},{"divisionStr":"","id":"428","isOpen":"0","lat":"30.807667","lng":"108.408661","name":"万州市","pinyin":"wanzhou"},{"divisionStr":"","id":"429","isOpen":"0","lat":"31.920658","lng":"120.284939","name":"江宁市","pinyin":"jiangning"},{"divisionStr":"","id":"430","isOpen":"0","lat":"39.999175","lng":"118.701144","name":"迁安市","pinyin":"qianan"},{"divisionStr":"","id":"431","isOpen":"0","lat":"32.010117","lng":"119.606536","name":"丹阳市","pinyin":"danyang"},{"divisionStr":"","id":"432","isOpen":"0","lat":"31.457735","lng":"121.13055","name":"太仓市","pinyin":"taicang"},{"divisionStr":"","id":"434","isOpen":"0","lat":"40.142128","lng":"94.661967","name":"敦煌市","pinyin":"dunhunag"},{"divisionStr":"","id":"435","isOpen":"0","lat":"39.00366","lng":"117.710496","name":"塘沽市","pinyin":"tanggu"},{"divisionStr":"","id":"440","isOpen":"0","lat":"24.732204","lng":"118.648066","name":"石狮市","pinyin":"shishi"},{"divisionStr":"","id":"443","isOpen":"0","lat":"27.65645","lng":"117.959688","name":"武夷山","pinyin":"wuyishan"},{"divisionStr":"","id":"445","isOpen":"0","lat":"30.183806","lng":"120.264253","name":"萧山市","pinyin":"xiaoshan"},{"divisionStr":"","id":"449","isOpen":"1","lat":"36.696506","lng":"114.203697","name":"武安市","pinyin":"wuan"},{"divisionStr":"","id":"450","isOpen":"1","lat":"31.416911","lng":"119.484211","name":"溧阳市","pinyin":"liyang"},{"divisionStr":"","id":"451","isOpen":"1","lat":"30.169665","lng":"121.266579","name":"慈溪市","pinyin":"cixi"},{"divisionStr":"","id":"452","isOpen":"1","lat":"26.698474","lng":"115.159349","name":"长兴市","pinyin":"changxing"},{"divisionStr":"","id":"453","isOpen":"1","lat":"35.55802","lng":"116.770188","name":"兖州市","pinyin":"yanzhou"},{"divisionStr":"","id":"454","isOpen":"1","lat":"31.340637","lng":"119.823308","name":"宜兴市","pinyin":"yixing"},{"divisionStr":"","id":"455","isOpen":"1","lat":"29.289648","lng":"120.241566","name":"东阳市","pinyin":"dongyang"},{"divisionStr":"","id":"456","isOpen":"1","lat":"30.033121","lng":"120.868122","name":"上虞市","pinyin":"shangyu"},{"divisionStr":"","id":"457","isOpen":"1","lat":"28.372506","lng":"121.385604","name":"温岭市","pinyin":"wenling"},{"divisionStr":"","id":"458","isOpen":"1","lat":"28.894598","lng":"120.031319","name":"永康市","pinyin":"yongkang"},{"divisionStr":"","id":"459","isOpen":"0","lat":"30.037858","lng":"121.154594","name":"余姚市","pinyin":"yuyao"},{"divisionStr":"","id":"460","isOpen":"0","lat":"31.723247","lng":"119.597897","name":"金坛市","pinyin":"jintan"},{"divisionStr":"","id":"461","isOpen":"0","lat":"28.858457","lng":"121.145047","name":"临海市","pinyin":"linhai"},{"divisionStr":"","id":"462","isOpen":"0","lat":"25.721143","lng":"119.384334","name":"福清市","pinyin":"fuqing"},{"divisionStr":"","id":"463","isOpen":"0","lat":"25.962984","lng":"119.523337","name":"长乐市","pinyin":"changle"},{"divisionStr":"","id":"464","isOpen":"0","lat":"36.052664","lng":"120.238472","name":"黄岛市","pinyin":"huangdao"},{"divisionStr":"","id":"465","isOpen":"0","lat":"36.681259","lng":"117.526228","name":"章丘市","pinyin":"zhangqiu"},{"divisionStr":"","id":"466","isOpen":"0","lat":"24.778481","lng":"110.496593","name":"阳朔县","pinyin":"yangshuo"},{"divisionStr":"","id":"467","isOpen":"0","lat":"30.54251","lng":"119.977401","name":"德清县","pinyin":"deqing"},{"divisionStr":"","id":"468","isOpen":"0","lat":"29.708692","lng":"120.246863","name":"诸暨市","pinyin":"zhuji"},{"divisionStr":"","id":"469","isOpen":"0","lat":"27.778657","lng":"120.655148","name":"瑞安市","pinyin":"ruian"},{"divisionStr":"","id":"470","isOpen":"0","lat":"28.116083","lng":"120.967147","name":"乐清市","pinyin":"leqing"},{"divisionStr":"","id":"471","isOpen":"0","lat":"22.984975","lng":"114.720079","name":"惠东县","pinyin":"huidong"}]}